[{"OBJECT_NAME":"LAPAN-A3","OBJECT_ID":"2016-040E","EPOCH":"2026-03-09T23:01:57.724896","MEAN_MOTION":15.3238951,"ECCENTRICITY":0.00109839,"INCLINATION":97.1488,"RA_OF_ASC_NODE":68.4254,"ARG_OF_PERICENTER":22.062,"MEAN_ANOMALY":338.1093,"EPHEMERIS_TYPE":0,"CLASSIFICATION_TYPE":"U","NORAD_CAT_ID":41603,"ELEMENT_SET_NO":999,"REV_AT_EPOCH":53961,"BSTAR":0.00017567445,"MEAN_MOTION_DOT":5.428e-5,"MEAN_MOTION_DDOT":0},{"OBJECT_NAME":"STARLINK-32755","OBJECT_ID":"2025-019P","EPOCH":"2026-03-09T10:28:48.043488","MEAN_MOTION":15.27582546,"ECCENTRICITY":0.00013548,"INCLINATION":43.004,"RA_OF_ASC_NODE":83.3654,"ARG_OF_PERICENTER":265.6752,"MEAN_ANOMALY":94.3945,"EPHEMERIS_TYPE":0,"CLASSIFICATION_TYPE":"U","NORAD_CAT_ID":62842,"ELEMENT_SET_NO":999,"REV_AT_EPOCH":6229,"BSTAR":0.0013433542,"MEAN_MOTION_DOT":0.00036892,"MEAN_MOTION_DDOT":0}]
